1998-067XU              
1 66908U 98067XU  26027.68076379  .00115122  00000+0  14373-2 0  9993
2 66908  51.6287 273.0686 0002930 133.1827 226.9411 15.58982264  8767
SILVERSAT               
1 66909U 98067XV  26027.66481558  .00127884  00000+0  15297-2 0  9995
2 66909  51.6289 272.9632 0003364 145.3172 214.8041 15.60055974  8766
1998-067XW              
1 66910U 98067XW  26027.67133054  .00104866  00000+0  13023-2 0  9993
2 66910  51.6275 273.0030 0001715 126.6688 233.4462 15.59170153  8768
1998-067XX              
1 66911U 98067XX  26027.70749020  .00132568  00000+0  15212-2 0  9996
2 66911  51.6266 272.4942 0002399 161.8337 198.2743 15.61123558  8765
1998-067XY              
1 66912U 98067XY  26027.71426875  .00080303  00000+0  10907-2 0  9993
2 66912  51.6290 273.2941 0002624 108.4931 251.6346 15.56902953  8759
